XRISM                   
1 57800U 23137A   26079.80041789  .00005123  00000+0  28851-3 0  9994
2 57800  31.0013 211.7899 0007956 150.8820 209.2263 15.11615391139479
ACS3                    
1 59588U 24077B   26079.80053946  .00020148  00000+0  15993-1 0  9996
2 59588  97.2013  18.4159 0069013  50.6010 310.1238 13.90086163 95748
SZ-21 MODULE            
1 66515U 25246C   26079.19410922  .00026007  00000+0  21818-3 0  9991
2 66515  41.4734 138.6579 0000376 257.1443 102.9357 15.69318212 19723
